satname,norad_id,inclination_deg,eccentricity,mean_motion_rev_per_day,perigee_km,apogee_km,l1,l2
STARLINK-1008,44714,53.054,0.000154,15.06406043,546.1265362498343,548.2595379012528,1 44714U 19074B   25319.32290373  .00015126  00000+0  10320-2 0  9992,2 44714  53.0540 340.0308 0001540  92.1640 267.9525 15.06406043331517
STARLINK-1010,44716,53.0263,0.0001548,16.44501369,152.84441285227513,154.86671775049217,1 44716U 19074D   25319.37832659  .08752573  12489-4  31625-3 0  9991,2 44716  53.0263 253.7273 0001548 273.5151  86.5720 16.44501369332706
STARLINK-1011,44717,53.043,0.0004368,15.95518191,283.95961559169973,289.7821664853109,1 44717U 19074E   25319.91671295  .00393376  73022-4  96788-3 0  9994,2 44717  53.0430 310.5528 0004368  38.2541  88.7896 15.95518191  6061
STARLINK-1012,44718,53.0559,0.0001347,15.0641925,546.2197235853091,548.0853965927981,1 44718U 19074F   25319.36713737  .00030144  00000+0  20329-2 0  9991,2 44718  53.0559 339.8322 0001347  95.6689 264.4454 15.06419250331516
STARLINK-1017,44723,53.0509,0.0003503,15.16004253,515.5157242509431,520.3471097839065,1 44723U 19074L   25319.44994679  .00008229  00000+0  43873-3 0  9991,2 44723  53.0509 335.0995 0003503 353.2532   6.8413 15.16004253331592
STARLINK-1019,44724,53.0544,0.0001286,15.43293222,435.52137366126954,437.27407199198024,1 44724U 19074M   25319.91671295  .01262949  00000+0  25236-1 0  9993,2 44724  53.0544 334.7645 0001286  89.7600 288.7633 15.43293222  5840
STARLINK-1020,44725,53.055,0.0001495,15.06402683,546.1679965618323,548.2386733219801,1 44725U 19074N   25319.83338316  .00006475  00000+0  45313-3 0  9998,2 44725  53.0550 357.7414 0001495  91.5267 268.5894 15.06402683331309
STARLINK-1031,44736,53.0503,0.000647,15.50754445,410.1272308172993,418.91693166842833,1 44736U 19074Z   25319.24431399  .00039556  00000+0  67962-3 0  9990,2 44736  53.0503 325.2198 0006470 336.4710  23.6002 15.50754445331722
STARLINK-1036,44741,53.0543,0.0001505,15.06389186,546.2024315429744,548.2869714351227,1 44741U 19074AE  25319.53114337  .00001044  00000+0  89026-4 0  9995,2 44741  53.0543 359.0931 0001505  96.6413 263.4747 15.06389186331267
STARLINK-1039,44744,53.0528,0.0001814,15.13941053,522.943223202753,525.4473893634722,1 44744U 19074AH  25319.59319282  .00006229  00000+0  35589-3 0  9994,2 44744  53.0528  16.0308 0001814 216.9247 143.1620 15.13941053331030
STARLINK-1042,44747,53.0466,0.0003549,15.43943459,432.0664796741812,436.9020782579928,1 44747U 19074AL  25319.22510706  .00026394  00000+0  57819-3 0  9996,2 44747  53.0466 281.4795 0003549 119.0629 241.0732 15.43943459332359
STARLINK-1043,44748,53.0542,0.0001741,15.13081535,525.6068576083844,528.011159808616,1 44748U 19074AM  25319.91671295  .02130799  00000+0  10815+0 0  9992,2 44748  53.0542  17.2766 0001741  86.5645  40.8223 15.13081535  5741
STARLINK-1046,44751,53.0547,0.0001162,15.06387238,546.4459418588776,548.0554019538276,1 44751U 19074AQ  25319.58458872  .00011835  00000+0  81235-3 0  9998,2 44751  53.0547  18.8540 0001162  92.4429 267.6693 15.06387238330999
STARLINK-1047,44752,53.0727,0.0001781,15.29686333,475.5283604249753,477.9700708949931,1 44752U 19074AR  25319.26629948  .00012441  00000+0  43827-3 0  9997,2 44752  53.0727 319.3596 0001781 196.6783 163.4158 15.29686333331811
STARLINK-1048,44753,53.0554,0.0001603,15.06396114,546.1133327111756,548.3336032772131,1 44753U 19074AS  25319.47769979 -.00000178  00000+0  69836-5 0  9995,2 44753  53.0554 339.3336 0001603  90.9013 269.2160 15.06396114331536
STARLINK-1053,44758,53.0392,0.0004942,15.62893851,375.96328773504683,382.6423412476897,1 44758U 19074AX  25319.91671295 -.00000515  00000+0  28097-6 0  9992,2 44758  53.0392 289.6031 0004942  77.3522   3.3560 15.62893851  5994
STARLINK-1054,44759,53.0295,0.0005346,16.12835994,235.5372547092802,242.6123775831038,1 44759U 19074AY  25319.14668389  .01107374  79932-3  95540-3 0  9997,2 44759  53.0295 312.9992 0005346  49.1237 311.0260 16.12835994329526
STARLINK-1060,44765,53.0522,0.0006291,15.66646689,364.2627407753844,372.75136832481985,1 44765U 19074BE  25319.57773541  .00073713  00000+0  68818-3 0  9990,2 44765  53.0522 337.0927 0006291  30.3750 329.7629 15.66646689331576
STARLINK-1063,44768,53.0549,0.0001436,15.0639841,546.2219503108599,548.2109118162607,1 44768U 19074BH  25319.77258334  .00013077  00000+0  89524-3 0  9997,2 44768  53.0549  18.0131 0001436  92.3937 267.7216 15.06398410331036
STARLINK-1067,44771,53.0557,0.0001251,15.06397805,546.3519233591169,548.0846472514995,1 44771U 19074BL  25319.56247156  .00004938  00000+0  35018-3 0  9993,2 44771  53.0557  18.9565 0001251  82.8835 277.2296 15.06397805330990
STARLINK-1068,44772,53.0554,0.0001422,15.06427659,546.142015873238,548.1115608946548,1 44772U 19074BM  25319.81865411  .00018163  00000+0  12342-2 0  9991,2 44772  53.0554 357.8054 0001422  92.4039 267.7113 15.06427659331308
STARLINK-1112,44925,53.0482,0.0002573,15.56571549,395.84478027346086,399.3315684481868,1 44925U 20001M   25318.91670139  .00085764  00000+0  11796-2 0  9997,2 44925  53.0482  94.5893 0002573 210.5813 145.7565 15.56571549  5931
STARLINK-1114,44927,53.051,9.36e-05,15.06383219,546.6147723247786,547.9112072028629,1 44927U 20001P   25318.79580963  .00002688  00000+0  19937-3 0  9990,2 44927  53.0510 142.3977 0000936  68.8398 291.2691 15.06383219322538
STARLINK-1123,44930,53.0588,7.88e-05,15.0639994,546.6660243487859,547.7574593104982,1 44930U 20001S   25319.54035303  .00003096  00000+0  22664-3 0  9996,2 44930  53.0588 139.0571 0000788  44.1918 315.9133 15.06399940322645
STARLINK-1144,44933,53.0424,0.0005846,15.64843019,369.7431540163043,377.63739046300816,1 44933U 20001V   25319.68327264  .00076898  00000+0  77113-3 0  9993,2 44933  53.0424  67.1164 0005846 142.4312 217.7111 15.64843019324963
STARLINK-1094,44941,53.054,0.0001328,15.06413941,546.2491504962909,548.0885117250346,1 44941U 20001AD  25319.81865632  .00008876  00000+0  61377-3 0  9999,2 44941  53.0540 117.8068 0001328  79.4637 280.6502 15.06413941322961
STARLINK-1096,44942,52.9816,0.0005687,16.04011892,259.54433275774045,267.09832746240863,1 44942U 20001AE  25319.78276968  .00622427  19486-3  93990-3 0  9996,2 44942  52.9816 226.6507 0005687 131.4535 228.6985 16.04011892326454
STARLINK-1122,44949,53.0552,0.0001433,15.06395771,546.2321149388054,548.2169235502197,1 44949U 20001AM  25319.84077586  .00005703  00000+0  40151-3 0  9996,2 44949  53.0552 117.7016 0001433  86.7743 273.3410 15.06395771322967
STARLINK-1080,44961,53.0534,0.0001338,15.06380843,546.3436525133966,548.196891499385,1 44961U 20001AZ  25318.84372157 -.00002057  00000+0 -11933-3 0  9998,2 44961  53.0534 102.1810 0001338 107.7687 252.3448 15.06380843323105
STARLINK-1090,44968,53.0526,0.0001282,15.06393893,546.3424429922761,548.1181071616065,1 44968U 20001BG  25319.77627247  .00006125  00000+0  42977-3 0  9991,2 44968  53.0526  97.9958 0001282 107.5073 252.6056 15.06393893323244
STARLINK-1107,44972,53.0071,0.0007699,15.76843589,334.2183226087618,344.56197090934165,1 44972U 20001BL  25319.91671295  .00286937  00000+0  16876-2 0  9993,2 44972  53.0071   4.5335 0007699  13.1606 233.2446 15.76843589  6008
STARLINK-1132,45044,53.054,0.0001036,15.0641132,546.4594014696067,547.8943265022253,1 45044U 20006A   25319.66937640  .00013962  00000+0  95404-3 0  9991,2 45044  53.0540  58.4762 0001036  99.7364 260.3742 15.06411320319556
STARLINK-1131,45047,53.053,0.0001545,15.06393578,546.161271120106,548.3012099064254,1 45047U 20006D   25319.71183000  .00004986  00000+0  35343-3 0  9995,2 45047  53.0530  78.8244 0001545 100.1147 260.0017 15.06393578319275
STARLINK-1134,45048,53.0394,0.0007248,15.29504969,472.32227823428093,482.2599067971905,1 45048U 20006E   25319.65298146  .00000960  00000+0  45527-4 0  9991,2 45048  53.0394  54.5126 0007248 202.9348 157.1328 15.29504969319616
STARLINK-1156,45054,53.0537,0.0001409,15.06402122,546.2292736260815,548.1808350169904,1 45054U 20006L   25319.68227076  .00007732  00000+0  53734-3 0  9997,2 45054  53.0537  78.4169 0001409  67.3987 292.7151 15.06402122319274
STARLINK-1159,45057,53.0539,0.0001317,15.51504938,411.4371060444046,413.22571542379137,1 45057U 20006P   25319.91671295  .00093873  00000+0  15502-2 0  9993,2 45057  53.0539  72.9626 0001317  30.6535 176.0042 15.51504938  5842
STARLINK-1166,45060,53.0541,0.0001399,15.06399588,546.2439642193158,548.1816770991363,1 45060U 20006S   25319.70807058  .00006024  00000+0  42298-3 0  9997,2 45060  53.0541  78.3028 0001399  87.0268 273.0881 15.06399588319282
STARLINK-1169,45061,53.0528,0.0001331,15.06399545,546.2911883694251,548.1347165267671,1 45061U 20006T   25319.71544891  .00007378  00000+0  51366-3 0  9991,2 45061  53.0528  78.2687 0001331  67.0190 293.0940 15.06399545319287
STARLINK-1171,45062,53.052,0.0005156,15.35280563,456.56148397131255,463.6130608410167,1 45062U 20006U   25318.75649318  .00014765  00000+0  43486-3 0  9997,2 45062  53.0520  77.5039 0005156 321.1062  38.9568 15.35280563319210
STARLINK-1133,45064,53.056,0.0001482,15.06429399,546.0951323997397,548.1477790060098,1 45064U 20006W   25319.64725222  .00014612  00000+0  99702-3 0  9990,2 45064  53.0560  58.5722 0001482 110.6670 249.4478 15.06429399319554
STARLINK-1167,45071,53.0535,0.0001576,15.06403088,546.1106602380341,548.2935271203623,1 45071U 20006AD  25319.67306236  .00006909  00000+0  48224-3 0  9994,2 45071  53.0535  58.4571 0001576  97.9266 262.1902 15.06403088319558
STARLINK-1168,45072,53.0537,0.0001199,15.06416701,546.330029096629,547.9907154064949,1 45072U 20006AE  25319.67674434  .00015161  00000+0  10341-2 0  9991,2 45072  53.0537  58.4405 0001199 110.9701 249.1417 15.06416701319550
STARLINK-1172,45074,53.0531,0.0001335,15.06415687,546.238952345765,548.0880075739142,1 45074U 20006AG  25319.68780407  .00008235  00000+0  57086-3 0  9994,2 45074  53.0531  58.3925 0001335  93.1033 267.0109 15.06415687319553
